STARLINK-31708          
1 59439U 24065U   26068.89043899 -.00000089  00000+0  91273-5 0  9993
2 59439  53.1597 280.4878 0001178 103.4004 256.7128 15.30185949108968
KUIPER-00175            
1 67135U 25301C   26068.97960463  .00019968  00000+0  66732-3 0  9998
2 67135  51.8781  63.6978 0002279  50.5695 309.5490 15.30996371 13854
